SKYSAT-C1               
1 41601U 16040C   26161.05133409  .00008604  00000+0  24608-3 0  9994
2 41601  96.9572 193.1585 0004048  71.6760 288.4925 15.36179993556778
LAPAN-A3                
1 41603U 16040E   26161.27249615  .00003050  00000+0  97692-4 0  9991
2 41603  97.1486 157.6455 0011622  48.3138 311.9098 15.33060756553755
GAOFEN-3                
1 41727U 16049A   26161.28492788  .00000154  00000+0  59994-4 0  9994
2 41727  98.4016 169.1753 0001267 100.4197 259.7135 14.42215021517659
SKYSAT-C4               
1 41771U 16058B   26161.02982579  .00016075  00000+0  30514-3 0  9992
2 41771  96.9183 183.1024 0000878 107.8953 252.2395 15.48364658544363
SKYSAT-C5               
1 41772U 16058C   26161.06084879  .00007277  00000+0  22088-3 0  9994
2 41772  97.0478 202.0194 0001805 358.8078   1.3161 15.34367885542653
SKYSAT-C2               
1 41773U 16058D   26161.31575326  .00011439  00000+0  27084-3 0  9991
2 41773  97.0175 183.6699 0005056  85.2192 274.9633 15.41914089543994
SKYSAT-C3               
1 41774U 16058E   26161.05281082  .00022814  00000+0  37703-3 0  9994
2 41774  96.9013 192.1762 0001849  83.2709 276.8755 15.52233472545000
ALSAT-1B                
1 41785U 16059C   26161.30790679  .00000227  00000+0  43327-4 0  9996
2 41785  97.7756 170.3686 0007761 246.2453 113.7941 14.72269264519561
PATHFINDER 1            
1 41787U 16059E   26161.25065057  .00000499  00000+0  95469-4 0  9992
2 41787  97.8166 160.8399 0027319 226.3952 133.4987 14.67655209518692
SCATSAT 1               
1 41790U 16059H   26161.17968733  .00000914  00000+0  12691-3 0  9997
2 41790  98.1191 224.8734 0053256 270.6712  88.8397 14.79510852100554
GOKTURK 1A              
1 41875U 16073A   26161.26852007  .00000231  00000+0  54397-4 0  9995
2 41875  98.1255  56.0511 0001456  76.9198 283.2166 14.62769307507815
RESOURCESAT-2A          
1 41877U 16074A   26161.31410852  .00000200  00000+0  11121-3 0  9995
2 41877  98.7523 234.8744 0003351  97.1203 263.0356 14.21614945493322
CARTOSAT-2D             
1 41948U 17008A   26161.24290980  .00004544  00000+0  21860-3 0  9998
2 41948  97.4108 220.6783 0003674 261.0700  99.0119 15.19281539516523
SENTINEL-2B             
1 42063U 17013A   26161.28440763 -.00000093  00000+0 -18804-4 0  9995
2 42063  98.5687 236.1562 0001185  86.7784 273.3534 14.30814631483654
CARTOSAT-2E             
1 42767U 17036C   26161.32638183  .00002209  00000+0  10800-3 0  9997
2 42767  97.4275 221.2418 0002849 350.9352   9.1831 15.19266213497101
FORMOSAT-5              
1 42920U 17049A   26161.22552632  .00000128  00000+0  43565-4 0  9998
2 42920  98.2253 236.6898 0012685 103.5041 256.7569 14.50896287465663
SENTINEL-5P             
1 42969U 17064A   26161.08279232  .00000041  00000+0  40275-4 0  9993
2 42969  98.7924 103.2646 0000998  82.6383 277.4906 14.19517789448552
SKYSAT-C11              
1 42987U 17068A   26160.92674171  .00026116  00000+0  35583-3 0  9996
2 42987  97.4342 309.4447 0000986  88.7602 271.3766 15.57518250482113
SKYSAT-C10              
1 42988U 17068B   26161.11964246  .00008761  00000+0  26441-3 0  9993
2 42988  97.4491 297.8994 0001215  91.4838 268.6545 15.34518207481271
SKYSAT-C9               
1 42989U 17068C   26160.90354425  .00012419  00000+0  29896-3 0  9994
2 42989  97.4412 298.5468 0009056 156.3831 203.7833 15.41381797481634
SKYSAT-C8               
1 42990U 17068D   26161.10169377  .00010052  00000+0  28141-3 0  9992
2 42990  97.4508 297.6541 0001543  97.9294 262.2125 15.36837328481229
SKYSAT-C7               
1 42991U 17068E   26160.63928334  .00009581  00000+0  26871-3 0  9999
2 42991  97.4519 298.1747 0007042 128.7138 231.4737 15.36775179481217
SKYSAT-C6               
1 42992U 17068F   26161.10248949  .00008730  00000+0  26702-3 0  9998
2 42992  97.4555 298.6395 0004034 156.3083 203.8347 15.34088137481237
GAOFEN-1 02             
1 43259U 18031A   26161.31810619  .00000244  00000+0  42434-4 0  9991
2 43259  98.0526 223.8642 0004241  48.6549 311.5025 14.76470839441688
GAOFEN-1 03             
1 43260U 18031B   26161.29629917  .00000597  00000+0  93241-4 0  9992
2 43260  98.0525 223.7015 0003826  92.8210 267.3438 14.76459134441676
GAOFEN-1 04             
1 43262U 18031D   26161.27201025  .00000742  00000+0  11405-3 0  9991
2 43262  98.0527 223.8671 0002233  89.8312 270.3153 14.76469842441663
SENTINEL-3B             
1 43437U 18039A   26161.17671133  .00000084  00000+0  52566-4 0  9996
2 43437  98.6248 228.8094 0000829  79.5130 280.6144 14.26739770423120
GAOFEN-5 01             
1 43461U 18043A   26161.21120453  .00000287  00000+0  69144-4 0  9992
2 43461  98.4566 132.6511 0003033  95.9552 264.1994 14.60600622430673
GAOFEN-6                
1 43484U 18048A   26160.07493644  .00000804  00000+0  12207-3 0  9992
2 43484  97.7757 223.0567 0011378 194.8499 165.2379 14.76624229432191
